0 COSMOS 2251 DEB
1 34951U 93036AEE 13282.35282095  .00005206  00000-0  11587-2 0  6762
2 34951 074.0233 050.5150 0078681 215.0089 175.7819 14.55279460238558
0 COSMOS 2251 DEB
1 34951U 93036AEE 13283.72175103  .00003224  00000-0  71320-3 0  6776
2 34951 074.0215 047.9219 0078550 212.1328 147.5531 14.55279824238757
0 COSMOS 2251 DEB
1 34951U 93036AEE 13283.73459615  .00005996  00000-0  13331-2 0  6775
2 34951 074.0233 047.8965 0078644 212.0972 214.8745 14.55285334238750
0 COSMOS 2251 DEB
1 34951U 93036AEE 13286.77623054  .00004793  00000-0  10666-2 0  6796
2 34951 074.0237 042.1301 0078503 205.7267 310.0981 14.55312348239192
0 COSMOS 2251 DEB
1 34951U 93036AEE 13289.03845145  .00006625  00000-0  14708-2 0  6804
2 34951 074.0244 037.8413 0078369 200.9842 282.1574 14.55338876239529
0 COSMOS 2251 DEB
1 34951U 93036AEE 13290.96254894  .00005781  00000-0  12840-2 0  6811
2 34951 074.0249 034.1942 0078217 196.9300 282.9300 14.55359675239802
0 COSMOS 2251 DEB
1 34951U 93036AEE 13292.60091728  .00005536  00000-0  12296-2 0  6823
2 34951 074.0249 031.0886 0078085 193.4640 226.8334 14.55376181240040
0 COSMOS 2251 DEB
1 34951U 93036AEE 13293.71843262  .00005820  00000-0  12921-2 0  6836
2 34951 074.0246 028.9700 0078031 191.0959 321.8912 14.55385866240201
0 COSMOS 2251 DEB
1 34951U 93036AEE 13294.95018752  .00005792  00000-0  12857-2 0  6848
2 34951 074.0245 026.6352 0077930 188.4970 295.5291 14.55398011240380
